{
  "norad_id": 46955,
  "name": "DRAGRACER 2 (AUGURY)",
  "history": [
    {
      "epoch": "2026-03-28T18:19:32.222496",
      "apogee_km": 375.1823309257761,
      "perigee_km": 367.9338333770529,
      "latitude_deg": -83.7163376690794,
      "longitude_deg": 28.802469440037385,
      "semi_major_axis_km": 6749.695082151414,
      "eccentricity": 0.00053695,
      "inclination_deg": 97.585,
      "raan_deg": 277.4664,
      "arg_perigee_deg": 194.5063,
      "mean_anomaly_deg": 165.6043,
      "mean_motion_rev_day": 15.65584565
    }
  ]
}