{"fetched_at":"2026-03-30T06:02:59Z","count":15439,"tles":[{"name":"DRAGRACER 2 (AUGURY)","line1":"1 46955U 20085AC  26087.76356739  .00042053  00000+0  41861-3 0  9999","line2":"2 46955  97.5850 277.4664 0005369 194.5063 165.6043 15.65584565299265","category":"Other"}]}